NORAD_CAT_ID,OBJECT_NAME,OBJECT_TYPE,EPOCH,MEAN_MOTION,ECCENTRICITY,INCLINATION,RA_OF_ASC_NODE,ARG_OF_PERICENTER,MEAN_ANOMALY,BSTAR,MEAN_MOTION_DOT,MEAN_MOTION_DDOT,TLE_LINE0,TLE_LINE1,TLE_LINE2,SEMIMAJOR_AXIS,PERIOD,APOGEE,PERIGEE,DECAYED
51777.0,STARLINK-3625,PAYLOAD,2024-06-24 13:00:22,15.08844834,0.000123,53.2166,256.5134,82.9754,277.1378,0.00016666,2.366e-05,0.0,0 STARLINK-3625,1 51777U 22017K   24176.54192765  .00002366  00000-0  16666-3 0  9993,2 51777  53.2166 256.5134 0001230  82.9754 277.1378 15.08844834128527,6917.866,95.437,540.582,538.88,0.0
51777.0,STARLINK-3625,PAYLOAD,2024-06-25 12:51:09,15.08841503,0.0001459,53.217,252.0533,73.4907,286.6245,6.517e-05,7.49e-06,0.0,0 STARLINK-3625,1 51777U 22017K   24177.53553055  .00000749  00000-0  65170-4 0  9994,2 51777  53.2170 252.0533 0001459  73.4907 286.6245 15.08841503130143,6917.876,95.437,540.75,538.731,0.0
51777.0,STARLINK-3625,PAYLOAD,2024-06-26 11:06:33,15.08844838,0.0001574,53.2165,247.8905,70.2454,289.8708,0.00012524,1.706e-05,0.0,0 STARLINK-3625,1 51777U 22017K   24178.46288915  .00001706  00000-0  12524-3 0  9995,2 51777  53.2165 247.8905 0001574  70.2454 289.8708 15.08844838128816,6917.866,95.437,540.819,538.642,0.0
51777.0,STARLINK-3625,PAYLOAD,2024-06-27 10:57:22,15.08807849,0.0001189,53.2152,243.4288,107.8389,252.2733,-0.00036829,-6.139e-05,0.0,0 STARLINK-3625,1 51777U 22017K   24179.45650827 -.00006139  00000-0 -36829-3 0  9991,2 51777  53.2152 243.4288 0001189 107.8389 252.2733 15.08807849130438,6917.979,95.44,540.666,539.021,0.0
51777.0,STARLINK-3625,PAYLOAD,2024-06-28 10:48:07,15.08836686,0.0001426,53.2158,238.9681,95.0393,265.0762,-8.0626e-06,-4.16e-06,0.0,0 STARLINK-3625,1 51777U 22017K   24180.45008415 -.00000416  00000-0 -80626-5 0  9991,2 51777  53.2158 238.9681 0001426  95.0393 265.0762 15.08836686130588,6917.891,95.438,540.742,538.769,0.0
51777.0,STARLINK-3625,PAYLOAD,2024-06-29 04:17:23,15.08810602,0.0001443,53.2159,235.6989,99.2311,260.8845,0.00017458,2.489e-05,0.0,0 STARLINK-3625,1 51777U 22017K   24181.17873894  .00002489  00000-0  17458-3 0  9993,2 51777  53.2159 235.6989 0001443  99.2311 260.8845 15.08810602130696,6917.97,95.439,540.834,538.837,0.0
51777.0,STARLINK-3625,PAYLOAD,2024-06-29 09:03:33,15.08804658,0.0001417,53.2162,234.8061,96.4493,263.666,7.9064e-05,9.69e-06,0.0,0 STARLINK-3625,1 51777U 22017K   24181.37746691  .00000969  00000-0  79064-4 0  9992,2 51777  53.2162 234.8061 0001417  96.4493 263.6660 15.08804658129253,6917.988,95.44,540.834,538.873,0.0
51777.0,STARLINK-3625,PAYLOAD,2024-06-29 20:11:15,15.08811309,0.0001361,53.2159,232.7261,91.4517,268.6631,0.00012057,1.63e-05,0.0,0 STARLINK-3625,1 51777U 22017K   24181.84115645  .00001630  00000-0  12057-3 0  9997,2 51777  53.2159 232.7261 0001361  91.4517 268.6631 15.08811309129320,6917.968,95.439,540.775,538.892,0.0
51777.0,STARLINK-3625,PAYLOAD,2024-06-30 04:08:10,15.08818464,0.0001493,53.2152,231.2356,74.7616,285.3541,3.5243e-05,2.73e-06,0.0,0 STARLINK-3625,1 51777U 22017K   24182.17234372  .00000273  00000-0  35243-4 0  9998,2 51777  53.2152 231.2356 0001493  74.7616 285.3541 15.08818464130846,6917.946,95.439,540.844,538.778,0.0
51777.0,STARLINK-3625,PAYLOAD,2024-06-30 10:29:42,15.08826641,0.0001507,53.2153,230.0492,85.6955,274.4209,0.00013186,1.81e-05,0.0,0 STARLINK-3625,1 51777U 22017K   24182.43729985  .00001810  00000-0  13186-3 0  9995,2 51777  53.2153 230.0492 0001507  85.6955 274.4209 15.08826641130888,6917.921,95.438,540.829,538.744,0.0
51777.0,STARLINK-3625,PAYLOAD,2024-06-30 20:02:01,15.08835776,0.0001625,53.2152,228.2641,81.5624,278.5553,0.00029329,4.382e-05,0.0,0 STARLINK-3625,1 51777U 22017K   24182.83474028  .00004382  00000-0  29329-3 0  9997,2 51777  53.2152 228.2641 0001625  81.5624 278.5553 15.08835776129470,6917.893,95.438,540.882,538.634,0.0
51777.0,STARLINK-3625,PAYLOAD,2024-07-01 11:55:52,15.08849798,0.0001685,53.2151,225.2905,77.9796,282.1385,0.0005055,7.768e-05,0.0,0 STARLINK-3625,1 51777U 22017K   24183.49714103  .00007768  00000-0  50550-3 0  9992,2 51777  53.2151 225.2905 0001685  77.9796 282.1385 15.08849798129578,6917.85,95.437,540.881,538.55,0.0
51777.0,STARLINK-3625,PAYLOAD,2024-07-01 19:52:48,15.08856983,0.0001677,53.2148,223.8037,80.8117,279.3065,0.00046817,7.174e-05,0.0,0 STARLINK-3625,1 51777U 22017K   24183.82833676  .00007174  00000-0  46817-3 0  9998,2 51777  53.2148 223.8037 0001677  80.8117 279.3065 15.08856983129628,6917.828,95.436,540.854,538.533,0.0
51777.0,STARLINK-3625,PAYLOAD,2024-07-02 02:14:20,15.08854042,0.0002365,53.2152,222.6153,81.8803,278.2457,0.00035315,5.339e-05,0.0,0 STARLINK-3625,1 51777U 22017K   24184.09329856  .00005339  00000-0  35315-3 0  9990,2 51777  53.2152 222.6153 0002365  81.8803 278.2457 15.08854042131133,6917.837,95.437,541.339,538.066,0.0
51777.0,STARLINK-3625,PAYLOAD,2024-07-02 10:11:16,15.0883973,0.0001773,53.2153,221.1284,82.0808,278.0386,5.3895e-06,-2.02e-06,0.0,0 STARLINK-3625,1 51777U 22017K   24184.42450109 -.00000202  00000-0  53895-5 0  9993,2 51777  53.2153 221.1284 0001773  82.0808 278.0386 15.08839730131184,6917.881,95.438,540.973,538.52,0.0
51777.0,STARLINK-3625,PAYLOAD,2024-07-03 19:34:22,15.08846619,0.0001545,53.2142,214.8828,84.7897,275.3272,0.00016863,2.397e-05,0.0,0 STARLINK-3625,1 51777U 22017K   24185.81553674  .00002397  00000-0  16863-3 0  9996,2 51777  53.2142 214.8828 0001545  84.7897 275.3272 15.08846619131390,6917.86,95.437,540.794,538.656,0.0
51777.0,STARLINK-3625,PAYLOAD,2024-07-04 05:06:41,15.0884019,0.0001618,53.2148,213.0992,86.8101,273.3076,0.00012918,1.768e-05,0.0,0 STARLINK-3625,1 51777U 22017K   24186.21298003  .00001768  00000-0  12918-3 0  9991,2 51777  53.2148 213.0992 0001618  86.8101 273.3076 15.08840190131456,6917.88,95.438,540.864,538.625,0.0
51777.0,STARLINK-3625,PAYLOAD,2024-07-04 11:28:13,15.08841194,0.0001616,53.2151,211.9087,91.1491,268.9686,0.00010738,1.421e-05,0.0,0 STARLINK-3625,1 51777U 22017K   24186.47793950  .00001421  00000-0  10738-3 0  9994,2 51777  53.2151 211.9087 0001616  91.1491 268.9686 15.08841194130025,6917.877,95.437,540.86,538.624,0.0
51777.0,STARLINK-3625,PAYLOAD,2024-07-05 11:19:00,15.0884306,0.0001593,53.2153,207.4483,90.5197,269.5978,8.4089e-05,1.051e-05,0.0,0 STARLINK-3625,1 51777U 22017K   24187.47153756  .00001051  00000-0  84089-4 0  9999,2 51777  53.2153 207.4483 0001593  90.5197 269.5978 15.08843060131641,6917.871,95.437,540.838,538.634,0.0
51777.0,STARLINK-3625,PAYLOAD,2024-07-06 04:48:15,15.08834751,0.0001509,53.2162,204.1768,90.9779,269.1386,4.6524e-05,4.52e-06,0.0,0 STARLINK-3625,1 51777U 22017K   24188.20018294  .00000452  00000-0  46524-4 0  9994,2 51777  53.2162 204.1768 0001509  90.9779 269.1386 15.08834751131756,6917.896,95.438,540.805,538.718,0.0
51777.0,STARLINK-3625,PAYLOAD,2024-07-06 07:59:02,15.08833227,0.0001493,53.216,203.582,90.5346,269.5817,2.7333e-05,1.47e-06,0.0,0 STARLINK-3625,1 51777U 22017K   24188.33266427  .00000147  00000-0  27333-4 0  9999,2 51777  53.2160 203.5820 0001493  90.5346 269.5817 15.08833227130304,6917.901,95.438,540.799,538.733,0.0
51777.0,STARLINK-3625,PAYLOAD,2024-07-06 17:31:20,15.08835187,0.0001469,53.2161,201.7978,89.2539,270.8622,1.6498e-05,-2.5e-07,0.0,0 STARLINK-3625,1 51777U 22017K   24188.73010352 -.00000025  00000-0  16498-4 0  9993,2 51777  53.2161 201.7978 0001469  89.2539 270.8622 15.08835187130363,6917.895,95.438,540.776,538.744,0.0
51777.0,STARLINK-3625,PAYLOAD,2024-07-07 07:49:49,15.08838674,0.0001468,53.2163,199.1217,88.9275,271.1886,4.5642e-05,4.38e-06,0.0,0 STARLINK-3625,1 51777U 22017K   24189.32626163  .00000438  00000-0  45642-4 0  9992,2 51777  53.2163 199.1217 0001468  88.9275 271.1886 15.08838674131926,6917.884,95.438,540.765,538.734,0.0
51777.0,STARLINK-3625,PAYLOAD,2024-07-08 10:51:22,15.08838327,0.000145,53.2161,194.0674,91.9374,268.1784,0.00011346,1.518e-05,0.0,0 STARLINK-3625,1 51777U 22017K   24190.45234195  .00001518  00000-0  11346-3 0  9991,2 51777  53.2161 194.0674 0001450  91.9374 268.1784 15.08838327132097,6917.886,95.438,540.754,538.747,0.0
51777.0,STARLINK-3625,PAYLOAD,2024-07-08 17:12:54,15.08841431,0.0001456,53.2163,192.878,90.8745,269.2414,0.00012149,1.646e-05,0.0,0 STARLINK-3625,1 51777U 22017K   24190.71730030  .00001646  00000-0  12149-3 0  9993,2 51777  53.2163 192.8780 0001456  90.8745 269.2414 15.08841431130662,6917.876,95.437,540.748,538.734,0.0
51777.0,STARLINK-3625,PAYLOAD,2024-07-09 09:06:46,15.08838536,0.0001614,53.2173,189.9052,90.0085,270.1092,4.8754e-05,4.88e-06,0.0,0 STARLINK-3625,1 51777U 22017K   24191.37970508  .00000488  00000-0  48754-4 0  9997,2 51777  53.2173 189.9052 0001614  90.0085 270.1092 15.08838536130763,6917.885,95.438,540.866,538.633,0.0
51777.0,STARLINK-3625,PAYLOAD,2024-07-10 05:46:47,15.08842765,0.0001662,53.2173,186.0398,91.479,268.6392,4.5814e-05,4.41e-06,0.0,0 STARLINK-3625,1 51777U 22017K   24192.24082273  .00000441  00000-0  45814-4 0  9990,2 51777  53.2173 186.0398 0001662  91.4790 268.6392 15.08842765132367,6917.872,95.437,540.887,538.587,0.0
51777.0,STARLINK-3625,PAYLOAD,2024-07-10 08:57:33,15.08841442,0.0001535,53.2167,185.4444,90.5624,269.5545,3.1412e-05,2.12e-06,0.0,0 STARLINK-3625,1 51777U 22017K   24192.37330345  .00000212  00000-0  31412-4 0  9995,2 51777  53.2167 185.4444 0001535  90.5624 269.5545 15.08841442130910,6917.876,95.437,540.803,538.679,0.0
51777.0,STARLINK-3625,PAYLOAD,2024-07-10 16:54:29,15.08842701,0.000151,53.2165,183.9576,89.7162,270.4004,2.5237e-05,1.14e-06,0.0,0 STARLINK-3625,1 51777U 22017K   24192.70450237  .00000114  00000-0  25237-4 0  9994,2 51777  53.2165 183.9576 0001510  89.7162 270.4004 15.08842701130962,6917.872,95.437,540.782,538.693,0.0
51777.0,STARLINK-3625,PAYLOAD,2024-07-11 05:37:34,15.0884024,0.0001472,53.2163,181.5776,92.7174,267.3987,5.2753e-05,5.52e-06,0.0,0 STARLINK-3625,1 51777U 22017K   24193.23442282  .00000552  00000-0  52753-4 0  9993,2 51777  53.2163 181.5776 0001472  92.7174 267.3987 15.08840240131041,6917.88,95.438,540.763,538.726,0.0
